{
  "norad_id": 60086,
  "name": "ASTRA 1P (SES-24)",
  "history": [
    {
      "epoch": "2026-03-28T21:43:18.187104",
      "apogee_km": 35802.319927317294,
      "perigee_km": 35770.58685658831,
      "latitude_deg": 0.034388056010841155,
      "longitude_deg": -84.51312543987297,
      "semi_major_axis_km": 42164.5903919528,
      "eccentricity": 0.0003763,
      "inclination_deg": 0.0633,
      "raan_deg": 15.8343,
      "arg_perigee_deg": 303.4629,
      "mean_anomaly_deg": 212.0192,
      "mean_motion_rev_day": 1.0027229
    }
  ]
}